{"type": "FeatureCollection", "features": [ {"type": "Feature", "properties": {"norad_id": 66423, "name": "STARLINK-35618", "group": "last-30-days", "lat": 42.87459872261093, "lon": -170.48338521828862, "alt_km": 409.06805472982796, "timestamp": "2025-12-02T23:34:14.290251+00:00", "meta": {"OBJECT_NAME": "STARLINK-35618", "OBJECT_ID": "2025-259B", "EPOCH": "2025-12-02T12:00:05.998752", "MEAN_MOTION": 15.50571396, "ECCENTRICITY": 0.0001356, "INCLINATION": 42.9993, "RA_OF_ASC_NODE": 107.2285, "ARG_OF_PERICENTER": 256.4345, "MEAN_ANOMALY": 15.9615, "EPHEMERIS_TYPE": 0, "CLASSIFICATION_TYPE": "U", "NORAD_CAT_ID": 66423, "ELEMENT_SET_NO": 999, "REV_AT_EPOCH": 463, "BSTAR": 0.00052811, "MEAN_MOTION_DOT": 0.00030753, "MEAN_MOTION_DDOT": 0}, "tle": {"line1": "1 66423U 25259B   25336.50006943  .00030753  00000+0  52811-3 0  9997", "line2": "2 66423  42.9993 107.2285 0001356 256.4345  15.9615 15.50571396  4630"}}, "geometry": {"type": "Point", "coordinates": [-170.48338521828862, 42.87459872261093]}}, {"type": "Feature", "properties": {"norad_id": 66424, "name": "STARLINK-35588", "group": "last-30-days", "lat": 42.95655934336285, "lon": -167.8643354547125, "alt_km": 409.13463823480197, "timestamp": "2025-12-02T23:34:14.290261+00:00", "meta": {"OBJECT_NAME": "STARLINK-35588", "OBJECT_ID": "2025-259C", "EPOCH": "2025-12-02T12:00:05.998752", "MEAN_MOTION": 15.50579434, "ECCENTRICITY": 0.0001012, "INCLINATION": 42.9994, "RA_OF_ASC_NODE": 107.224, "ARG_OF_PERICENTER": 254.2467, "MEAN_ANOMALY": 20.1541, "EPHEMERIS_TYPE": 0, "CLASSIFICATION_TYPE": "U", "NORAD_CAT_ID": 66424, "ELEMENT_SET_NO": 999, "REV_AT_EPOCH": 463, "BSTAR": -0.0014723, "MEAN_MOTION_DOT": -0.00085771, "MEAN_MOTION_DDOT": 0}, "tle": {"line1": "1 66424U 25259C   25336.50006943 -.00085771  00000+0 -14723-2 0  9999", "line2": "2 66424  42.9994 107.2240 0001012 254.2467  20.1541 15.50579434  4630"}}, "geometry": {"type": "Point", "coordinates": [-167.8643354547125, 42.95655934336285]}}, {"type": "Feature", "properties": {"norad_id": 66425, "name": "STARLINK-35555", "group": "last-30-days", "lat": 42.978441116433245, "lon": -165.25844835224382, "alt_km": 409.0294813613691, "timestamp": "2025-12-02T23:34:14.290270+00:00", "meta": {"OBJECT_NAME": "STARLINK-35555", "OBJECT_ID": "2025-259D", "EPOCH": "2025-12-02T12:00:05.998752", "MEAN_MOTION": 15.50566254, "ECCENTRICITY": 0.000124, "INCLINATION": 42.9994, "RA_OF_ASC_NODE": 107.2178, "ARG_OF_PERICENTER": 262.8709, "MEAN_ANOMALY": 13.3729, "EPHEMERIS_TYPE": 0, "CLASSIFICATION_TYPE": "U", "NORAD_CAT_ID": 66425, "ELEMENT_SET_NO": 999, "REV_AT_EPOCH": 463, "BSTAR": 0.00031381, "MEAN_MOTION_DOT": 0.00018102, "MEAN_MOTION_DDOT": 0}, "tle": {"line1": "1 66425U 25259D   25336.50006943  .00018102  00000+0  31381-3 0  9992", "line2": "2 66425  42.9994 107.2178 0001240 262.8709  13.3729 15.50566254  4636"}}, "geometry": {"type": "Point", "coordinates": [-165.25844835224382, 42.978441116433245]}}, {"type": "Feature", "properties": {"norad_id": 66426, "name": "STARLINK-35589", "group": "last-30-days", "lat": 42.941303677368126, "lon": -162.66899213420945, "alt_km": 408.96514753377505, "timestamp": "2025-12-02T23:34:14.290283+00:00", "meta": {"OBJECT_NAME": "STARLINK-35589", "OBJECT_ID": "2025-259E", "EPOCH": "2025-12-02T12:00:05.998752", "MEAN_MOTION": 15.50518157, "ECCENTRICITY": 0.000129, "INCLINATION": 42.9993, "RA_OF_ASC_NODE": 107.2145, "ARG_OF_PERICENTER": 262.055, "MEAN_ANOMALY": 16.0995, "EPHEMERIS_TYPE": 0, "CLASSIFICATION_TYPE": "U", "NORAD_CAT_ID": 66426, "ELEMENT_SET_NO": 999, "REV_AT_EPOCH": 463, "BSTAR": 0.0017166, "MEAN_MOTION_DOT": 0.00101456, "MEAN_MOTION_DDOT": 0}, "tle": {"line1": "1 66426U 25259E   25336.50006943  .00101456  00000+0  17166-2 0  9992", "line2": "2 66426  42.9993 107.2145 0001290 262.0550  16.0995 15.50518157  4635"}}, "geometry": {"type": "Point", "coordinates": [-162.66899213420945, 42.941303677368126]}}, {"type": "Feature", "properties": {"norad_id": 66427, "name": "STARLINK-35611", "group": "last-30-days", "lat": 42.84355133700141, "lon": -160.03785762842364, "alt_km": 409.1061201136181, "timestamp": "2025-12-02T23:34:14.290295+00:00", "meta": {"OBJECT_NAME": "STARLINK-35611", "OBJECT_ID": "2025-259F", "EPOCH": "2025-12-02T12:00:05.998752", "MEAN_MOTION": 15.50563171, "ECCENTRICITY": 0.0001377, "INCLINATION": 42.9994, "RA_OF_ASC_NODE": 107.2087, "ARG_OF_PERICENTER": 257.0704, "MEAN_ANOMALY": 23.0021, "EPHEMERIS_TYPE": 0, "CLASSIFICATION_TYPE": "U", "NORAD_CAT_ID": 66427, "ELEMENT_SET_NO": 999, "REV_AT_EPOCH": 463, "BSTAR": 0.00043826, "MEAN_MOTION_DOT": 0.00025438, "MEAN_MOTION_DDOT": 0}, "tle": {"line1": "1 66427U 25259F   25336.50006943  .00025438  00000+0  43826-3 0  9991", "line2": "2 66427  42.9994 107.2087 0001377 257.0704  23.0021 15.50563171  4637"}}, "geometry": {"type": "Point", "coordinates": [-160.03785762842364, 42.84355133700141]}}, {"type": "Feature", "properties": {"norad_id": 66428, "name": "STARLINK-35610", "group": "last-30-days", "lat": 42.687977165038404, "lon": -157.45025122456502, "alt_km": 408.9637528941803, "timestamp": "2025-12-02T23:34:14.290304+00:00", "meta": {"OBJECT_NAME": "STARLINK-35610", "OBJECT_ID": "2025-259G", "EPOCH": "2025-12-02T12:00:05.998752", "MEAN_MOTION": 15.50520572, "ECCENTRICITY": 0.0001263, "INCLINATION": 42.9995, "RA_OF_ASC_NODE": 107.2045, "ARG_OF_PERICENTER": 259.3943, "MEAN_ANOMALY": 22.5961, "EPHEMERIS_TYPE": 0, "CLASSIFICATION_TYPE": "U", "NORAD_CAT_ID": 66428, "ELEMENT_SET_NO": 999, "REV_AT_EPOCH": 463, "BSTAR": 0.0017055, "MEAN_MOTION_DOT": 0.00100798, "MEAN_MOTION_DDOT": 0}, "tle": {"line1": "1 66428U 25259G   25336.50006943  .00100798  00000+0  17055-2 0  9999", "line2": "2 66428  42.9995 107.2045 0001263 259.3943  22.5961 15.50520572  4632"}}, "geometry": {"type": "Point", "coordinates": [-157.45025122456502, 42.687977165038404]}}, {"type": "Feature", "properties": {"norad_id": 66429, "name": "STARLINK-35533", "group": "last-30-days", "lat": 42.47321391503085, "lon": -154.87071886535568, "alt_km": 409.02085437507867, "timestamp": "2025-12-02T23:34:14.290314+00:00", "meta": {"OBJECT_NAME": "STARLINK-35533", "OBJECT_ID": "2025-259H", "EPOCH": "2025-12-02T12:00:05.998752", "MEAN_MOTION": 15.50518617, "ECCENTRICITY": 0.00013, "INCLINATION": 42.9994, "RA_OF_ASC_NODE": 107.1982, "ARG_OF_PERICENTER": 259.1942, "MEAN_ANOMALY": 24.7142, "EPHEMERIS_TYPE": 0, "CLASSIFICATION_TYPE": "U", "NORAD_CAT_ID": 66429, "ELEMENT_SET_NO": 999, "REV_AT_EPOCH": 463, "BSTAR": 0.0016928, "MEAN_MOTION_DOT": 0.00100028, "MEAN_MOTION_DDOT": 0}, "tle": {"line1": "1 66429U 25259H   25336.50006943  .00100028  00000+0  16928-2 0  9994", "line2": "2 66429  42.9994 107.1982 0001300 259.1942  24.7142 15.50518617  4632"}}, "geometry": {"type": "Point", "coordinates": [-154.87071886535568, 42.47321391503085]}}, {"type": "Feature", "properties": {"norad_id": 66430, "name": "STARLINK-35470", "group": "last-30-days", "lat": 42.20493636222986, "lon": -152.34260519329098, "alt_km": 409.1693788185903, "timestamp": "2025-12-02T23:34:14.290326+00:00", "meta": {"OBJECT_NAME": "STARLINK-35470", "OBJECT_ID": "2025-259J", "EPOCH": "2025-12-02T12:00:05.998752", "MEAN_MOTION": 15.5053258, "ECCENTRICITY": 0.0001366, "INCLINATION": 42.9995, "RA_OF_ASC_NODE": 107.1943, "ARG_OF_PERICENTER": 259.5489, "MEAN_ANOMALY": 26.256, "EPHEMERIS_TYPE": 0, "CLASSIFICATION_TYPE": "U", "NORAD_CAT_ID": 66430, "ELEMENT_SET_NO": 999, "REV_AT_EPOCH": 463, "BSTAR": 0.0010376, "MEAN_MOTION_DOT": 0.00060904, "MEAN_MOTION_DDOT": 0}, "tle": {"line1": "1 66430U 25259J   25336.50006943  .00060904  00000+0  10376-2 0  9995", "line2": "2 66430  42.9995 107.1943 0001366 259.5489  26.2560 15.50532580  4630"}}, "geometry": {"type": "Point", "coordinates": [-152.34260519329098, 42.20493636222986]}}, {"type": "Feature", "properties": {"norad_id": 66431, "name": "STARLINK-35439", "group": "last-30-days", "lat": 41.87828517755796, "lon": -149.81878926064613, "alt_km": 409.1981014470348, "timestamp": "2025-12-02T23:34:14.290336+00:00", "meta": {"OBJECT_NAME": "STARLINK-35439", "OBJECT_ID": "2025-259K", "EPOCH": "2025-12-02T12:00:05.998752", "MEAN_MOTION": 15.50527308, "ECCENTRICITY": 0.0001355, "INCLINATION": 42.9994, "RA_OF_ASC_NODE": 107.1884, "ARG_OF_PERICENTER": 254.9521, "MEAN_ANOMALY": 32.7695, "EPHEMERIS_TYPE": 0, "CLASSIFICATION_TYPE": "U", "NORAD_CAT_ID": 66431, "ELEMENT_SET_NO": 999, "REV_AT_EPOCH": 463, "BSTAR": 0.0010022, "MEAN_MOTION_DOT": 0.00058786, "MEAN_MOTION_DDOT": 0}, "tle": {"line1": "1 66431U 25259K   25336.50006943  .00058786  00000+0  10022-2 0  9999", "line2": "2 66431  42.9994 107.1884 0001355 254.9521  32.7695 15.50527308  4631"}}, "geometry": {"type": "Point", "coordinates": [-149.81878926064613, 41.87828517755796]}}, {"type": "Feature", "properties": {"norad_id": 66432, "name": "STARLINK-35446", "group": "last-30-days", "lat": 41.490563884887244, "lon": -147.2833591511115, "alt_km": 409.2809326576544, "timestamp": "2025-12-02T23:34:14.290351+00:00", "meta": {"OBJECT_NAME": "STARLINK-35446", "OBJECT_ID": "2025-259L", "EPOCH": "2025-12-02T12:00:05.998752", "MEAN_MOTION": 15.50536666, "ECCENTRICITY": 0.0001455, "INCLINATION": 42.9996, "RA_OF_ASC_NODE": 107.1828, "ARG_OF_PERICENTER": 255.2952, "MEAN_ANOMALY": 34.3451, "EPHEMERIS_TYPE": 0, "CLASSIFICATION_TYPE": "U", "NORAD_CAT_ID": 66432, "ELEMENT_SET_NO": 999, "REV_AT_EPOCH": 463, "BSTAR": 0.0010043, "MEAN_MOTION_DOT": 0.00058934, "MEAN_MOTION_DDOT": 0}, "tle": {"line1": "1 66432U 25259L   25336.50006943  .00058934  00000+0  10043-2 0  9998", "line2": "2 66432  42.9996 107.1828 0001455 255.2952  34.3451 15.50536666  4630"}}, "geometry": {"type": "Point", "coordinates": [-147.2833591511115, 41.490563884887244]}}]}